0 FENGYUN 1C DEB
1 33637U 99025DDW 13283.31177652  .00001449  00000-0  69439-3 0  1811
2 33637 098.9202 305.0624 0107260 090.5254 270.8462 14.17593457283070
0 FENGYUN 1C DEB
1 33637U 99025DDW 13287.26431107  .00001511  00000-0  72272-3 0  1827
2 33637 098.9229 309.0356 0107521 079.4268 281.9048 14.17606736283636
0 FENGYUN 1C DEB
1 33637U 99025DDW 13289.31114455  .00001656  00000-0  79046-3 0  1836
2 33637 098.9204 311.0877 0106908 073.4966 287.8346 14.17615987283923
0 FENGYUN 1C DEB
1 33637U 99025DDW 13291.28737106  .00001727  00000-0  82332-3 0  1841
2 33637 098.9176 313.0640 0106673 067.6855 293.5690 14.17624462284208
0 FENGYUN 1C DEB
1 33637U 99025DDW 13293.89880200  .00001793  00000-0  85387-3 0  1851
2 33637 098.9198 315.6879 0107133 061.9036 299.3132 14.17635254284570
0 FENGYUN 1C DEB
1 33637U 99025DDW 13295.31037564  .00001996  00000-0  94759-3 0  1866
2 33637 098.9177 317.1049 0107158 056.3913 304.7654 14.17643885284773
